[{"OBJECT_NAME":"IRIDIUM 148","OBJECT_ID":"2018-030G","EPOCH":"2026-03-09T17:19:11.405856","MEAN_MOTION":14.34218043,"ECCENTRICITY":0.00021734,"INCLINATION":86.4007,"RA_OF_ASC_NODE":332.0603,"ARG_OF_PERICENTER":85.9806,"MEAN_ANOMALY":274.1638,"EPHEMERIS_TYPE":0,"CLASSIFICATION_TYPE":"U","NORAD_CAT_ID":43255,"ELEMENT_SET_NO":999,"REV_AT_EPOCH":41591,"BSTAR":1.8722771e-5,"MEAN_MOTION_DOT":7.2e-7,"MEAN_MOTION_DDOT":0},{"OBJECT_NAME":"FENGYUN 1C DEB","OBJECT_ID":"1999-025YC","EPOCH":"2026-03-09T03:14:04.733664","MEAN_MOTION":14.24250917,"ECCENTRICITY":0.00557122,"INCLINATION":98.8395,"RA_OF_ASC_NODE":144.8247,"ARG_OF_PERICENTER":356.0528,"MEAN_ANOMALY":4.0203,"EPHEMERIS_TYPE":0,"CLASSIFICATION_TYPE":"U","NORAD_CAT_ID":30267,"ELEMENT_SET_NO":999,"REV_AT_EPOCH":98524,"BSTAR":0.0015339151,"MEAN_MOTION_DOT":3.552e-5,"MEAN_MOTION_DDOT":0}]
